CSS (TIANHE)            
1 48274U 21035A   25133.68386206  .00028629  00000+0  32321-3 0  9999
2 48274  41.4647 230.3574 0006465 265.0803  94.9298 15.61825384230764